[{"OBJECT_NAME":"STARLINK-3137","OBJECT_ID":"2021-104AT","EPOCH":"2026-03-20T11:27:42.401376","MEAN_MOTION":15.42290786,"ECCENTRICITY":0.00025558,"INCLINATION":53.2172,"RA_OF_ASC_NODE":154.5479,"ARG_OF_PERICENTER":24.0414,"MEAN_ANOMALY":336.0711,"EPHEMERIS_TYPE":0,"CLASSIFICATION_TYPE":"U","NORAD_CAT_ID":49449,"ELEMENT_SET_NO":999,"REV_AT_EPOCH":24063,"BSTAR":0.0002763404,"MEAN_MOTION_DOT":0.00011684,"MEAN_MOTION_DDOT":0},{"OBJECT_NAME":"STARLINK-3127","OBJECT_ID":"2021-104AU","EPOCH":"2026-03-20T16:34:02.496288","MEAN_MOTION":15.08838074,"ECCENTRICITY":0.000123,"INCLINATION":53.2178,"RA_OF_ASC_NODE":169.7752,"ARG_OF_PERICENTER":90.4051,"MEAN_ANOMALY":269.7082,"EPHEMERIS_TYPE":0,"CLASSIFICATION_TYPE":"U","NORAD_CAT_ID":49450,"ELEMENT_SET_NO":999,"REV_AT_EPOCH":24069,"BSTAR":7.2838e-5,"MEAN_MOTION_DOT":8.71e-6,"MEAN_MOTION_DDOT":0},{"OBJECT_NAME":"STARLINK-3125","OBJECT_ID":"2021-104AV","EPOCH":"2026-03-20T13:02:03.807168","MEAN_MOTION":15.08836254,"ECCENTRICITY":9.331e-5,"INCLINATION":53.2172,"RA_OF_ASC_NODE":170.3991,"ARG_OF_PERICENTER":88.7896,"MEAN_ANOMALY":271.3203,"EPHEMERIS_TYPE":0,"CLASSIFICATION_TYPE":"U","NORAD_CAT_ID":49451,"ELEMENT_SET_NO":999,"REV_AT_EPOCH":24041,"BSTAR":3.883712e-5,"MEAN_MOTION_DOT":3.3e-6,"MEAN_MOTION_DDOT":0},{"OBJECT_NAME":"STARLINK-3150","OBJECT_ID":"2021-104AW","EPOCH":"2026-03-20T17:33:42.501888","MEAN_MOTION":15.0883841,"ECCENTRICITY":0.0001315,"INCLINATION":53.2163,"RA_OF_ASC_NODE":169.5915,"ARG_OF_PERICENTER":90.7858,"MEAN_ANOMALY":269.3284,"EPHEMERIS_TYPE":0,"CLASSIFICATION_TYPE":"U","NORAD_CAT_ID":49452,"ELEMENT_SET_NO":999,"REV_AT_EPOCH":24044,"BSTAR":1.4852e-5,"MEAN_MOTION_DOT":-5.2e-7,"MEAN_MOTION_DDOT":0},{"OBJECT_NAME":"STARLINK-3129","OBJECT_ID":"2021-104AX","EPOCH":"2026-03-20T13:03:27.597888","MEAN_MOTION":15.08833786,"ECCENTRICITY":0.00012036,"INCLINATION":53.2165,"RA_OF_ASC_NODE":170.4824,"ARG_OF_PERICENTER":94.3437,"MEAN_ANOMALY":265.7693,"EPHEMERIS_TYPE":0,"CLASSIFICATION_TYPE":"U","NORAD_CAT_ID":49453,"ELEMENT_SET_NO":999,"REV_AT_EPOCH":24041,"BSTAR":-3.306214e-6,"MEAN_MOTION_DOT":-3.4e-6,"MEAN_MOTION_DDOT":0},{"OBJECT_NAME":"STARLINK-3160","OBJECT_ID":"2021-104AY","EPOCH":"2026-03-20T12:56:45.519936","MEAN_MOTION":15.08841296,"ECCENTRICITY":8.641e-5,"INCLINATION":53.2174,"RA_OF_ASC_NODE":170.4173,"ARG_OF_PERICENTER":81.4467,"MEAN_ANOMALY":278.6624,"EPHEMERIS_TYPE":0,"CLASSIFICATION_TYPE":"U","NORAD_CAT_ID":49454,"ELEMENT_SET_NO":999,"REV_AT_EPOCH":24041,"BSTAR":5.0981217e-5,"MEAN_MOTION_DOT":5.24e-6,"MEAN_MOTION_DDOT":0},{"OBJECT_NAME":"STARLINK-3145","OBJECT_ID":"2021-104AZ","EPOCH":"2026-03-20T15:46:20.755488","MEAN_MOTION":15.08832805,"ECCENTRICITY":8.6e-5,"INCLINATION":53.2157,"RA_OF_ASC_NODE":169.8854,"ARG_OF_PERICENTER":104.9294,"MEAN_ANOMALY":255.1793,"EPHEMERIS_TYPE":0,"CLASSIFICATION_TYPE":"U","NORAD_CAT_ID":49455,"ELEMENT_SET_NO":999,"REV_AT_EPOCH":24043,"BSTAR":-0.00012454,"MEAN_MOTION_DOT":-2.269e-5,"MEAN_MOTION_DDOT":0},{"OBJECT_NAME":"STARLINK-3124","OBJECT_ID":"2021-104BA","EPOCH":"2026-03-20T12:52:50.910240","MEAN_MOTION":15.08841777,"ECCENTRICITY":0.00013029,"INCLINATION":53.2156,"RA_OF_ASC_NODE":170.477,"ARG_OF_PERICENTER":89.1906,"MEAN_ANOMALY":270.9235,"EPHEMERIS_TYPE":0,"CLASSIFICATION_TYPE":"U","NORAD_CAT_ID":49456,"ELEMENT_SET_NO":999,"REV_AT_EPOCH":24041,"BSTAR":2.4997709e-5,"MEAN_MOTION_DOT":1.1e-6,"MEAN_MOTION_DDOT":0},{"OBJECT_NAME":"STARLINK-3132","OBJECT_ID":"2021-104BB","EPOCH":"2026-03-20T15:42:25.001856","MEAN_MOTION":15.0884013,"ECCENTRICITY":0.0001262,"INCLINATION":53.2155,"RA_OF_ASC_NODE":169.9083,"ARG_OF_PERICENTER":92.2575,"MEAN_ANOMALY":267.8562,"EPHEMERIS_TYPE":0,"CLASSIFICATION_TYPE":"U","NORAD_CAT_ID":49457,"ELEMENT_SET_NO":999,"REV_AT_EPOCH":24043,"BSTAR":7.5154e-6,"MEAN_MOTION_DOT":-1.68e-6,"MEAN_MOTION_DDOT":0},{"OBJECT_NAME":"STARLINK-3156","OBJECT_ID":"2021-104BC","EPOCH":"2026-03-20T15:51:38.011104","MEAN_MOTION":15.0884469,"ECCENTRICITY":0.0001312,"INCLINATION":53.2162,"RA_OF_ASC_NODE":169.8708,"ARG_OF_PERICENTER":89.7186,"MEAN_ANOMALY":270.3956,"EPHEMERIS_TYPE":0,"CLASSIFICATION_TYPE":"U","NORAD_CAT_ID":49458,"ELEMENT_SET_NO":999,"REV_AT_EPOCH":24043,"BSTAR":0.00021601,"MEAN_MOTION_DOT":3.152e-5,"MEAN_MOTION_DDOT":0},{"OBJECT_NAME":"STARLINK-3141","OBJECT_ID":"2021-104BD","EPOCH":"2026-03-20T12:24:58.143168","MEAN_MOTION":15.08841922,"ECCENTRICITY":0.00012057,"INCLINATION":53.2135,"RA_OF_ASC_NODE":170.5131,"ARG_OF_PERICENTER":93.5318,"MEAN_ANOMALY":266.5812,"EPHEMERIS_TYPE":0,"CLASSIFICATION_TYPE":"U","NORAD_CAT_ID":49459,"ELEMENT_SET_NO":999,"REV_AT_EPOCH":24041,"BSTAR":0.00016900321,"MEAN_MOTION_DOT":2.403e-5,"MEAN_MOTION_DDOT":0},{"OBJECT_NAME":"STARLINK-3140","OBJECT_ID":"2021-104BE","EPOCH":"2026-03-20T05:58:07.323168","MEAN_MOTION":15.08841319,"ECCENTRICITY":6.6e-5,"INCLINATION":53.2171,"RA_OF_ASC_NODE":171.7208,"ARG_OF_PERICENTER":85.5154,"MEAN_ANOMALY":274.5914,"EPHEMERIS_TYPE":0,"CLASSIFICATION_TYPE":"U","NORAD_CAT_ID":49460,"ELEMENT_SET_NO":999,"REV_AT_EPOCH":24036,"BSTAR":6.5146e-5,"MEAN_MOTION_DOT":7.49e-6,"MEAN_MOTION_DDOT":0},{"OBJECT_NAME":"STARLINK-3219","OBJECT_ID":"2021-115A","EPOCH":"2026-03-20T18:45:14.518656","MEAN_MOTION":15.08837481,"ECCENTRICITY":0.0001161,"INCLINATION":53.2165,"RA_OF_ASC_NODE":99.5499,"ARG_OF_PERICENTER":103.0138,"MEAN_ANOMALY":257.0984,"EPHEMERIS_TYPE":0,"CLASSIFICATION_TYPE":"U","NORAD_CAT_ID":49724,"ELEMENT_SET_NO":999,"REV_AT_EPOCH":23720,"BSTAR":0.00019049,"MEAN_MOTION_DOT":2.745e-5,"MEAN_MOTION_DDOT":0},{"OBJECT_NAME":"STARLINK-3218","OBJECT_ID":"2021-115B","EPOCH":"2026-03-20T08:09:19.473408","MEAN_MOTION":15.08822035,"ECCENTRICITY":0.00014448,"INCLINATION":53.217,"RA_OF_ASC_NODE":101.4162,"ARG_OF_PERICENTER":94.734,"MEAN_ANOMALY":265.3817,"EPHEMERIS_TYPE":0,"CLASSIFICATION_TYPE":"U","NORAD_CAT_ID":49725,"ELEMENT_SET_NO":999,"REV_AT_EPOCH":23714,"BSTAR":-0.00011727671,"MEAN_MOTION_DOT":-2.153e-5,"MEAN_MOTION_DDOT":0},{"OBJECT_NAME":"STARLINK-3242","OBJECT_ID":"2021-115D","EPOCH":"2026-03-20T10:15:08.264736","MEAN_MOTION":15.08837657,"ECCENTRICITY":0.00012344,"INCLINATION":53.2164,"RA_OF_ASC_NODE":110.9199,"ARG_OF_PERICENTER":89.9923,"MEAN_ANOMALY":270.121,"EPHEMERIS_TYPE":0,"CLASSIFICATION_TYPE":"U","NORAD_CAT_ID":49727,"ELEMENT_SET_NO":999,"REV_AT_EPOCH":23701,"BSTAR":-2.25117e-6,"MEAN_MOTION_DOT":-3.24e-6,"MEAN_MOTION_DDOT":0},{"OBJECT_NAME":"STARLINK-3240","OBJECT_ID":"2021-115E","EPOCH":"2026-03-20T11:55:48.981216","MEAN_MOTION":15.08843489,"ECCENTRICITY":0.00013284,"INCLINATION":53.2165,"RA_OF_ASC_NODE":110.6039,"ARG_OF_PERICENTER":86.8677,"MEAN_ANOMALY":273.2467,"EPHEMERIS_TYPE":0,"CLASSIFICATION_TYPE":"U","NORAD_CAT_ID":49728,"ELEMENT_SET_NO":999,"REV_AT_EPOCH":23702,"BSTAR":1.7655724e-5,"MEAN_MOTION_DOT":-7.0e-8,"MEAN_MOTION_DDOT":0}]
