STARLINK-3137           
1 49449U 21104AT  26079.47757409  .00011684  00000+0  27634-3 0  9999
2 49449  53.2172 154.5479 0002555  24.0414 336.0711 15.42290786240639
STARLINK-3127           
1 49450U 21104AU  26079.69030667  .00000871  00000+0  72838-4 0  9998
2 49450  53.2178 169.7752 0001230  90.4051 269.7082 15.08838074240691
STARLINK-3125           
1 49451U 21104AV  26079.54309962  .00000330  00000+0  38837-4 0  9991
2 49451  53.2172 170.3991 0000933  88.7896 271.3203 15.08836254240417
STARLINK-3150           
1 49452U 21104AW  26079.73174192 -.00000052  00000+0  14852-4 0  9991
2 49452  53.2163 169.5915 0001315  90.7858 269.3284 15.08838410240445
STARLINK-3129           
1 49453U 21104AX  26079.54406942 -.00000340  00000+0 -33062-5 0  9998
2 49453  53.2165 170.4824 0001203  94.3437 265.7693 15.08833786240419
STARLINK-3160           
1 49454U 21104AY  26079.53941574  .00000524  00000+0  50981-4 0  9993
2 49454  53.2174 170.4173 0000864  81.4467 278.6624 15.08841296240411
STARLINK-3145           
1 49455U 21104AZ  26079.65718467 -.00002269  00000+0 -12454-3 0  9992
2 49455  53.2157 169.8854 0000860 104.9294 255.1793 15.08832805240431
STARLINK-3124           
1 49456U 21104BA  26079.53670035  .00000110  00000+0  24998-4 0  9996
2 49456  53.2156 170.4770 0001302  89.1906 270.9235 15.08841777240414
STARLINK-3132           
1 49457U 21104BB  26079.65445604 -.00000168  00000+0  75154-5 0  9997
2 49457  53.2155 169.9083 0001262  92.2575 267.8562 15.08840130240438
STARLINK-3156           
1 49458U 21104BC  26079.66085661  .00003152  00000+0  21601-3 0  9993
2 49458  53.2162 169.8708 0001312  89.7186 270.3956 15.08844690240436
STARLINK-3141           
1 49459U 21104BD  26079.51733962  .00002403  00000+0  16900-3 0  9996
2 49459  53.2135 170.5131 0001205  93.5318 266.5812 15.08841922240418
STARLINK-3140           
1 49460U 21104BE  26079.24869587  .00000749  00000+0  65146-4 0  9999
2 49460  53.2171 171.7208 0000660  85.5154 274.5914 15.08841319240367
STARLINK-3219           
1 49724U 21115A   26079.78141804  .00002745  00000+0  19049-3 0  9996
2 49724  53.2165  99.5499 0001161 103.0138 257.0984 15.08837481237204
STARLINK-3218           
1 49725U 21115B   26079.33980872 -.00002153  00000+0 -11728-3 0  9995
2 49725  53.2170 101.4162 0001444  94.7340 265.3817 15.08822035237145
STARLINK-3242           
1 49727U 21115D   26079.42717899 -.00000324  00000+0 -22512-5 0  9997
2 49727  53.2164 110.9199 0001234  89.9923 270.1210 15.08837657237018
STARLINK-3240           
1 49728U 21115E   26079.49709469 -.00000007  00000+0  17656-4 0  9998
2 49728  53.2165 110.6039 0001328  86.8677 273.2467 15.08843489237025
